{"type": "FeatureCollection", "features": [ {"type": "Feature", "properties": {"norad_id": 34547, "name": "COSMOS 2251 DEB", "group": "cosmos-2251-debris", "lat": 52.165750021724534, "lon": 105.08705839007811, "alt_km": 651.1468280951085, "timestamp": "2025-12-21T14:40:48.313280+00:00", "meta": {"OBJECT_NAME": "COSMOS 2251 DEB", "OBJECT_ID": "1993-036UH", "EPOCH": "2025-12-20T12:20:26.771136", "MEAN_MOTION": 14.72500623, "ECCENTRICITY": 0.00164886, "INCLINATION": 74.0319, "RA_OF_ASC_NODE": 85.5884, "ARG_OF_PERICENTER": 164.3583, "MEAN_ANOMALY": 195.8102, "EPHEMERIS_TYPE": 0, "CLASSIFICATION_TYPE": "U", "NORAD_CAT_ID": 34547, "ELEMENT_SET_NO": 999, "REV_AT_EPOCH": 88636, "BSTAR": 0.0011309172, "MEAN_MOTION_DOT": 7.172e-05, "MEAN_MOTION_DDOT": 0}, "tle": {"line1": "1 34547U 93036UH  25354.51419874  .00007172  00000+0  11309-2 0  9994", "line2": "2 34547  74.0319  85.5884 0016488 164.3583 195.8102 14.72500623886361"}}, "geometry": {"type": "Point", "coordinates": [105.08705839007811, 52.165750021724534]}}, {"type": "Feature", "properties": {"norad_id": 34553, "name": "COSMOS 2251 DEB", "group": "cosmos-2251-debris", "lat": -22.531965561783423, "lon": 1.8379116591734532, "alt_km": 696.2946106669478, "timestamp": "2025-12-21T14:40:48.313290+00:00", "meta": {"OBJECT_NAME": "COSMOS 2251 DEB", "OBJECT_ID": "1993-036UP", "EPOCH": "2025-12-20T13:17:54.956256", "MEAN_MOTION": 14.57788031, "ECCENTRICITY": 0.0019113, "INCLINATION": 74.0237, "RA_OF_ASC_NODE": 177.0235, "ARG_OF_PERICENTER": 253.7155, "MEAN_ANOMALY": 161.966, "EPHEMERIS_TYPE": 0, "CLASSIFICATION_TYPE": "U", "NORAD_CAT_ID": 34553, "ELEMENT_SET_NO": 999, "REV_AT_EPOCH": 88210, "BSTAR": 0.0006785, "MEAN_MOTION_DOT": 3.082e-05, "MEAN_MOTION_DDOT": 0}, "tle": {"line1": "1 34553U 93036UP  25354.55410829  .00003082  00000+0  67850-3 0  9995", "line2": "2 34553  74.0237 177.0235 0019113 253.7155 161.9660 14.57788031882105"}}, "geometry": {"type": "Point", "coordinates": [1.8379116591734532, -22.531965561783423]}}, {"type": "Feature", "properties": {"norad_id": 34554, "name": "COSMOS 2251 DEB", "group": "cosmos-2251-debris", "lat": 35.62368561463162, "lon": -65.50991126663811, "alt_km": 752.6874289906273, "timestamp": "2025-12-21T14:40:48.313301+00:00", "meta": {"OBJECT_NAME": "COSMOS 2251 DEB", "OBJECT_ID": "1993-036UQ", "EPOCH": "2025-12-20T05:48:54.109152", "MEAN_MOTION": 14.37952739, "ECCENTRICITY": 0.002333, "INCLINATION": 74.0392, "RA_OF_ASC_NODE": 285.1768, "ARG_OF_PERICENTER": 346.0878, "MEAN_ANOMALY": 165.1635, "EPHEMERIS_TYPE": 0, "CLASSIFICATION_TYPE": "U", "NORAD_CAT_ID": 34554, "ELEMENT_SET_NO": 999, "REV_AT_EPOCH": 87863, "BSTAR": 0.00024183, "MEAN_MOTION_DOT": 7.07e-06, "MEAN_MOTION_DDOT": 0}, "tle": {"line1": "1 34554U 93036UQ  25354.24229293  .00000707  00000+0  24183-3 0  9998", "line2": "2 34554  74.0392 285.1768 0023330 346.0878 165.1635 14.37952739878631"}}, "geometry": {"type": "Point", "coordinates": [-65.50991126663811, 35.62368561463162]}}, {"type": "Feature", "properties": {"norad_id": 34556, "name": "COSMOS 2251 DEB", "group": "cosmos-2251-debris", "lat": 30.28805262266161, "lon": 117.05421256075385, "alt_km": 637.0437203658548, "timestamp": "2025-12-21T14:40:48.313311+00:00", "meta": {"OBJECT_NAME": "COSMOS 2251 DEB", "OBJECT_ID": "1993-036US", "EPOCH": "2025-12-20T17:58:02.520192", "MEAN_MOTION": 14.78025681, "ECCENTRICITY": 0.00068003, "INCLINATION": 74.0159, "RA_OF_ASC_NODE": 109.1125, "ARG_OF_PERICENTER": 169.8839, "MEAN_ANOMALY": 311.7101, "EPHEMERIS_TYPE": 0, "CLASSIFICATION_TYPE": "U", "NORAD_CAT_ID": 34556, "ELEMENT_SET_NO": 999, "REV_AT_EPOCH": 88447, "BSTAR": 0.0013550836, "MEAN_MOTION_DOT": 9.769e-05, "MEAN_MOTION_DDOT": 0}, "tle": {"line1": "1 34556U 93036US  25354.74864028  .00009769  00000+0  13551-2 0  9999", "line2": "2 34556  74.0159 109.1125 0006800 169.8839 311.7101 14.78025681884475"}}, "geometry": {"type": "Point", "coordinates": [117.05421256075385, 30.28805262266161]}}, {"type": "Feature", "properties": {"norad_id": 34560, "name": "COSMOS 2251 DEB", "group": "cosmos-2251-debris", "lat": 69.11744115116963, "lon": -103.84890830724609, "alt_km": 648.81505060772, "timestamp": "2025-12-21T14:40:48.313321+00:00", "meta": {"OBJECT_NAME": "COSMOS 2251 DEB", "OBJECT_ID": "1993-036UW", "EPOCH": "2025-12-20T19:11:31.276320", "MEAN_MOTION": 14.72325113, "ECCENTRICITY": 0.00140663, "INCLINATION": 74.017, "RA_OF_ASC_NODE": 126.4319, "ARG_OF_PERICENTER": 208.7057, "MEAN_ANOMALY": 272.8847, "EPHEMERIS_TYPE": 0, "CLASSIFICATION_TYPE": "U", "NORAD_CAT_ID": 34560, "ELEMENT_SET_NO": 999, "REV_AT_EPOCH": 88370, "BSTAR": 0.0013555548, "MEAN_MOTION_DOT": 8.565e-05, "MEAN_MOTION_DDOT": 0}, "tle": {"line1": "1 34560U 93036UW  25354.79966755  .00008565  00000+0  13556-2 0  9997", "line2": "2 34560  74.0170 126.4319 0014066 208.7057 272.8847 14.72325113883704"}}, "geometry": {"type": "Point", "coordinates": [-103.84890830724609, 69.11744115116963]}}, {"type": "Feature", "properties": {"norad_id": 34563, "name": "COSMOS 2251 DEB", "group": "cosmos-2251-debris", "lat": 49.431162038280675, "lon": -12.386215794311138, "alt_km": 740.9297982736698, "timestamp": "2025-12-21T14:40:48.313331+00:00", "meta": {"OBJECT_NAME": "COSMOS 2251 DEB", "OBJECT_ID": "1993-036UZ", "EPOCH": "2025-12-20T00:30:18.501408", "MEAN_MOTION": 14.46530475, "ECCENTRICITY": 0.00138969, "INCLINATION": 74.0369, "RA_OF_ASC_NODE": 190.1141, "ARG_OF_PERICENTER": 283.7366, "MEAN_ANOMALY": 204.2441, "EPHEMERIS_TYPE": 0, "CLASSIFICATION_TYPE": "U", "NORAD_CAT_ID": 34563, "ELEMENT_SET_NO": 999, "REV_AT_EPOCH": 88302, "BSTAR": 0.00029395545, "MEAN_MOTION_DOT": 1.033e-05, "MEAN_MOTION_DDOT": 0}, "tle": {"line1": "1 34563U 93036UZ  25354.02104747  .00001033  00000+0  29396-3 0  9994", "line2": "2 34563  74.0369 190.1141 0013896 283.7366 204.2441 14.46530475883028"}}, "geometry": {"type": "Point", "coordinates": [-12.386215794311138, 49.431162038280675]}}, {"type": "Feature", "properties": {"norad_id": 34564, "name": "COSMOS 2251 DEB", "group": "cosmos-2251-debris", "lat": 71.70822298787367, "lon": -78.38071821322531, "alt_km": 755.1035496679924, "timestamp": "2025-12-21T14:40:48.313341+00:00", "meta": {"OBJECT_NAME": "COSMOS 2251 DEB", "OBJECT_ID": "1993-036VA", "EPOCH": "2025-12-21T01:40:16.342176", "MEAN_MOTION": 14.40703135, "ECCENTRICITY": 0.00193185, "INCLINATION": 74.0316, "RA_OF_ASC_NODE": 222.6004, "ARG_OF_PERICENTER": 325.3273, "MEAN_ANOMALY": 185.3128, "EPHEMERIS_TYPE": 0, "CLASSIFICATION_TYPE": "U", "NORAD_CAT_ID": 34564, "ELEMENT_SET_NO": 999, "REV_AT_EPOCH": 88126, "BSTAR": 0.00017237979, "MEAN_MOTION_DOT": 5.25e-06, "MEAN_MOTION_DDOT": 0}, "tle": {"line1": "1 34564U 93036VA  25355.06963359  .00000525  00000+0  17238-3 0  9999", "line2": "2 34564  74.0316 222.6004 0019318 325.3273 185.3128 14.40703135881269"}}, "geometry": {"type": "Point", "coordinates": [-78.38071821322531, 71.70822298787367]}}, {"type": "Feature", "properties": {"norad_id": 34567, "name": "COSMOS 2251 DEB", "group": "cosmos-2251-debris", "lat": -42.45851722136571, "lon": 125.6336672115521, "alt_km": 829.0198916454456, "timestamp": "2025-12-21T14:40:48.313351+00:00", "meta": {"OBJECT_NAME": "COSMOS 2251 DEB", "OBJECT_ID": "1993-036VD", "EPOCH": "2025-12-21T03:55:29.428320", "MEAN_MOTION": 14.24025115, "ECCENTRICITY": 0.00742087, "INCLINATION": 74.0408, "RA_OF_ASC_NODE": 141.6189, "ARG_OF_PERICENTER": 214.0962, "MEAN_ANOMALY": 324.1122, "EPHEMERIS_TYPE": 0, "CLASSIFICATION_TYPE": "U", "NORAD_CAT_ID": 34567, "ELEMENT_SET_NO": 999, "REV_AT_EPOCH": 87244, "BSTAR": 0.00017064479, "MEAN_MOTION_DOT": 3.78e-06, "MEAN_MOTION_DDOT": 0}, "tle": {"line1": "1 34567U 93036VD  25355.16353505  .00000378  00000+0  17064-3 0  9992", "line2": "2 34567  74.0408 141.6189 0074208 214.0962 324.1122 14.24025115872440"}}, "geometry": {"type": "Point", "coordinates": [125.6336672115521, -42.45851722136571]}}, {"type": "Feature", "properties": {"norad_id": 34569, "name": "COSMOS 2251 DEB", "group": "cosmos-2251-debris", "lat": 32.52459116323624, "lon": -8.455898368414589, "alt_km": 889.6021727598873, "timestamp": "2025-12-21T14:40:48.313361+00:00", "meta": {"OBJECT_NAME": "COSMOS 2251 DEB", "OBJECT_ID": "1993-036VF", "EPOCH": "2025-12-20T19:33:25.690752", "MEAN_MOTION": 14.24771151, "ECCENTRICITY": 0.01576715, "INCLINATION": 73.9894, "RA_OF_ASC_NODE": 183.5346, "ARG_OF_PERICENTER": 10.0797, "MEAN_ANOMALY": 9.3302, "EPHEMERIS_TYPE": 0, "CLASSIFICATION_TYPE": "U", "NORAD_CAT_ID": 34569, "ELEMENT_SET_NO": 999, "REV_AT_EPOCH": 87083, "BSTAR": 0.00031496467, "MEAN_MOTION_DOT": 8.09e-06, "MEAN_MOTION_DDOT": 0}, "tle": {"line1": "1 34569U 93036VF  25354.81488068  .00000809  00000+0  31496-3 0  9992", "line2": "2 34569  73.9894 183.5346 0157671  10.0797   9.3302 14.24771151870836"}}, "geometry": {"type": "Point", "coordinates": [-8.455898368414589, 32.52459116323624]}}, {"type": "Feature", "properties": {"norad_id": 34570, "name": "COSMOS 2251 DEB", "group": "cosmos-2251-debris", "lat": -2.635236252394994, "lon": -157.90495299283424, "alt_km": 884.9891096944775, "timestamp": "2025-12-21T14:40:48.313371+00:00", "meta": {"OBJECT_NAME": "COSMOS 2251 DEB", "OBJECT_ID": "1993-036VG", "EPOCH": "2025-12-21T06:41:00.077568", "MEAN_MOTION": 13.99833504, "ECCENTRICITY": 0.01902916, "INCLINATION": 73.9568, "RA_OF_ASC_NODE": 203.4332, "ARG_OF_PERICENTER": 84.0165, "MEAN_ANOMALY": 37.063, "EPHEMERIS_TYPE": 0, "CLASSIFICATION_TYPE": "U", "NORAD_CAT_ID": 34570, "ELEMENT_SET_NO": 999, "REV_AT_EPOCH": 85720, "BSTAR": 0.00041501381, "MEAN_MOTION_DOT": 6.89e-06, "MEAN_MOTION_DDOT": 0}, "tle": {"line1": "1 34570U 93036VG  25355.27847312  .00000689  00000+0  41501-3 0  9990", "line2": "2 34570  73.9568 203.4332 0190291  84.0165  37.0630 13.99833504857208"}}, "geometry": {"type": "Point", "coordinates": [-157.90495299283424, -2.635236252394994]}}]}